ONEWEB-0240             
1 48785U 21045U   23292.93034264 -.00000055  00000+0 -18131-3 0  9991
2 48785  87.8946  92.5471 0001396  75.2087 284.9198 13.15546052116700
ONEWEB-0246             
1 48786U 21045V   23292.92612520 -.00000045  00000+0 -15403-3 0  9996
2 48786  87.8944  92.5490 0001718  75.9389 284.1932 13.15547547116573
ONEWEB-0210             
1 48787U 21045W   23292.90078577  .00000154  00000+0  37550-3 0  9999
2 48787  87.8944  92.5629 0002345  77.5217 282.6175 13.15547578116614
ONEWEB-0214             
1 48788U 21045X   23292.91133554 -.00000035  00000+0 -12612-3 0  9990
2 48788  87.8941  92.5497 0002418  80.9424 279.1980 13.15545757116582
ONEWEB-0221             
1 48789U 21045Y   23292.68950906  .00000134  00000+0  32077-3 0  9998
2 48789  87.8950  92.6054 0001563  79.7039 280.4268 13.15547675116643
ONEWEB-0213             
1 48790U 21045Z   23292.75288315  .00000242  00000+0  60925-3 0  9999
2 48790  87.8947  92.6099 0001748  75.5310 284.6014 13.15551349116717
ONEWEB-0212             
1 48791U 21045AA  23292.88598269  .00000074  00000+0  16161-3 0  9992
2 48791  87.8943  92.5639 0001593  97.2966 262.8345 13.15546612116722
ONEWEB-0227             
1 48792U 21045AB  23292.49936618  .00000094  00000+0  21509-3 0  9998
2 48792  87.8944  92.6559 0001518  86.0501 274.0803 13.15548057117757
